[{"OBJECT_NAME":"STARLINK-11608 [DTC]","OBJECT_ID":"2025-053L","EPOCH":"2026-03-26T04:06:11.622240","MEAN_MOTION":15.71027592,"ECCENTRICITY":0.00069569,"INCLINATION":43.002,"RA_OF_ASC_NODE":12.7026,"ARG_OF_PERICENTER":244.9564,"MEAN_ANOMALY":115.0582,"EPHEMERIS_TYPE":0,"CLASSIFICATION_TYPE":"U","NORAD_CAT_ID":63275,"ELEMENT_SET_NO":999,"REV_AT_EPOCH":6025,"BSTAR":0.0016233731,"MEAN_MOTION_DOT":0.00215234,"MEAN_MOTION_DDOT":0},{"OBJECT_NAME":"STARLINK-11623 [DTC]","OBJECT_ID":"2025-053M","EPOCH":"2026-03-26T01:56:36.971808","MEAN_MOTION":15.70933703,"ECCENTRICITY":0.00012634,"INCLINATION":43.0016,"RA_OF_ASC_NODE":13.7664,"ARG_OF_PERICENTER":230.7621,"MEAN_ANOMALY":129.3135,"EPHEMERIS_TYPE":0,"CLASSIFICATION_TYPE":"U","NORAD_CAT_ID":63276,"ELEMENT_SET_NO":999,"REV_AT_EPOCH":6023,"BSTAR":0.0016936713,"MEAN_MOTION_DOT":0.002237,"MEAN_MOTION_DDOT":0},{"OBJECT_NAME":"STARLINK-33660","OBJECT_ID":"2025-053P","EPOCH":"2026-03-26T10:46:54.678144","MEAN_MOTION":15.27601997,"ECCENTRICITY":0.0002155,"INCLINATION":43.0005,"RA_OF_ASC_NODE":147.3835,"ARG_OF_PERICENTER":248.5497,"MEAN_ANOMALY":111.5125,"EPHEMERIS_TYPE":0,"CLASSIFICATION_TYPE":"U","NORAD_CAT_ID":63278,"ELEMENT_SET_NO":999,"REV_AT_EPOCH":5875,"BSTAR":0.00083054,"MEAN_MOTION_DOT":0.00022679,"MEAN_MOTION_DDOT":0},{"OBJECT_NAME":"STARLINK-33611","OBJECT_ID":"2025-053Q","EPOCH":"2026-03-26T05:17:01.467168","MEAN_MOTION":15.27630182,"ECCENTRICITY":0.00017002,"INCLINATION":43.0029,"RA_OF_ASC_NODE":144.7788,"ARG_OF_PERICENTER":233.6274,"MEAN_ANOMALY":126.4421,"EPHEMERIS_TYPE":0,"CLASSIFICATION_TYPE":"U","NORAD_CAT_ID":63279,"ELEMENT_SET_NO":999,"REV_AT_EPOCH":5887,"BSTAR":0.0011158859,"MEAN_MOTION_DOT":0.00030619,"MEAN_MOTION_DDOT":0},{"OBJECT_NAME":"STARLINK-33646","OBJECT_ID":"2025-053R","EPOCH":"2026-03-26T11:29:15.187200","MEAN_MOTION":15.27596929,"ECCENTRICITY":0.0001138,"INCLINATION":42.9996,"RA_OF_ASC_NODE":146.7436,"ARG_OF_PERICENTER":266.3204,"MEAN_ANOMALY":93.7517,"EPHEMERIS_TYPE":0,"CLASSIFICATION_TYPE":"U","NORAD_CAT_ID":63280,"ELEMENT_SET_NO":999,"REV_AT_EPOCH":5876,"BSTAR":0.00064119,"MEAN_MOTION_DOT":0.00017433,"MEAN_MOTION_DDOT":0},{"OBJECT_NAME":"STARLINK-33665","OBJECT_ID":"2025-053S","EPOCH":"2026-03-26T12:31:57.106272","MEAN_MOTION":15.27597813,"ECCENTRICITY":0.000166,"INCLINATION":42.9998,"RA_OF_ASC_NODE":146.2,"ARG_OF_PERICENTER":282.316,"MEAN_ANOMALY":77.7505,"EPHEMERIS_TYPE":0,"CLASSIFICATION_TYPE":"U","NORAD_CAT_ID":63281,"ELEMENT_SET_NO":999,"REV_AT_EPOCH":5877,"BSTAR":0.0005761,"MEAN_MOTION_DOT":0.00015633,"MEAN_MOTION_DDOT":0},{"OBJECT_NAME":"STARLINK-33603","OBJECT_ID":"2025-053T","EPOCH":"2026-03-26T04:35:50.517888","MEAN_MOTION":15.27613263,"ECCENTRICITY":8.53e-5,"INCLINATION":42.9994,"RA_OF_ASC_NODE":148.869,"ARG_OF_PERICENTER":294.5509,"MEAN_ANOMALY":65.5254,"EPHEMERIS_TYPE":0,"CLASSIFICATION_TYPE":"U","NORAD_CAT_ID":63282,"ELEMENT_SET_NO":999,"REV_AT_EPOCH":5871,"BSTAR":0.00077990905,"MEAN_MOTION_DOT":0.00021283,"MEAN_MOTION_DDOT":0},{"OBJECT_NAME":"STARLINK-33669","OBJECT_ID":"2025-053U","EPOCH":"2026-03-26T12:43:03.376416","MEAN_MOTION":15.27600294,"ECCENTRICITY":0.0001522,"INCLINATION":43.0033,"RA_OF_ASC_NODE":146.2631,"ARG_OF_PERICENTER":277.3517,"MEAN_ANOMALY":82.7162,"EPHEMERIS_TYPE":0,"CLASSIFICATION_TYPE":"U","NORAD_CAT_ID":63283,"ELEMENT_SET_NO":999,"REV_AT_EPOCH":5877,"BSTAR":0.00088456,"MEAN_MOTION_DOT":0.00024174,"MEAN_MOTION_DDOT":0},{"OBJECT_NAME":"STARLINK-33673","OBJECT_ID":"2025-053V","EPOCH":"2026-03-26T10:20:19.797216","MEAN_MOTION":15.2760801,"ECCENTRICITY":0.0001171,"INCLINATION":43.0002,"RA_OF_ASC_NODE":139.4387,"ARG_OF_PERICENTER":268.7236,"MEAN_ANOMALY":91.3481,"EPHEMERIS_TYPE":0,"CLASSIFICATION_TYPE":"U","NORAD_CAT_ID":63284,"ELEMENT_SET_NO":999,"REV_AT_EPOCH":5895,"BSTAR":0.00077169,"MEAN_MOTION_DOT":0.00021052,"MEAN_MOTION_DDOT":0},{"OBJECT_NAME":"STARLINK-33662","OBJECT_ID":"2025-053W","EPOCH":"2026-03-25T21:32:57.198336","MEAN_MOTION":15.27587727,"ECCENTRICITY":0.000148,"INCLINATION":43.0001,"RA_OF_ASC_NODE":150.123,"ARG_OF_PERICENTER":267.0906,"MEAN_ANOMALY":92.9776,"EPHEMERIS_TYPE":0,"CLASSIFICATION_TYPE":"U","NORAD_CAT_ID":63285,"ELEMENT_SET_NO":999,"REV_AT_EPOCH":5867,"BSTAR":0.00060145,"MEAN_MOTION_DOT":0.00016329,"MEAN_MOTION_DDOT":0},{"OBJECT_NAME":"STARLINK-33613","OBJECT_ID":"2025-053X","EPOCH":"2026-03-26T10:37:39.642816","MEAN_MOTION":15.27601855,"ECCENTRICITY":8.46e-5,"INCLINATION":43.0008,"RA_OF_ASC_NODE":147.3338,"ARG_OF_PERICENTER":227.7191,"MEAN_ANOMALY":132.3589,"EPHEMERIS_TYPE":0,"CLASSIFICATION_TYPE":"U","NORAD_CAT_ID":63286,"ELEMENT_SET_NO":999,"REV_AT_EPOCH":5875,"BSTAR":0.00070442,"MEAN_MOTION_DOT":0.00019185,"MEAN_MOTION_DDOT":0},{"OBJECT_NAME":"STARLINK-33680","OBJECT_ID":"2025-053Y","EPOCH":"2026-03-26T12:52:18.227712","MEAN_MOTION":15.27607749,"ECCENTRICITY":0.0001595,"INCLINATION":43.0016,"RA_OF_ASC_NODE":146.3148,"ARG_OF_PERICENTER":284.3412,"MEAN_ANOMALY":75.7262,"EPHEMERIS_TYPE":0,"CLASSIFICATION_TYPE":"U","NORAD_CAT_ID":63287,"ELEMENT_SET_NO":999,"REV_AT_EPOCH":5882,"BSTAR":0.0010083,"MEAN_MOTION_DOT":0.00027613,"MEAN_MOTION_DDOT":0},{"OBJECT_NAME":"STARLINK-11568 [DTC]","OBJECT_ID":"2025-057A","EPOCH":"2026-03-26T11:46:37.602336","MEAN_MOTION":15.70952775,"ECCENTRICITY":0.0001319,"INCLINATION":42.9992,"RA_OF_ASC_NODE":162.9328,"ARG_OF_PERICENTER":245.4987,"MEAN_ANOMALY":114.5744,"EPHEMERIS_TYPE":0,"CLASSIFICATION_TYPE":"U","NORAD_CAT_ID":63307,"ELEMENT_SET_NO":999,"REV_AT_EPOCH":5982,"BSTAR":0.0017557,"MEAN_MOTION_DOT":0.00232336,"MEAN_MOTION_DDOT":0},{"OBJECT_NAME":"STARLINK-11575 [DTC]","OBJECT_ID":"2025-057B","EPOCH":"2026-03-26T12:00:01.999296","MEAN_MOTION":15.70807299,"ECCENTRICITY":0.0001233,"INCLINATION":43.0005,"RA_OF_ASC_NODE":163.2539,"ARG_OF_PERICENTER":268.156,"MEAN_ANOMALY":354.3252,"EPHEMERIS_TYPE":0,"CLASSIFICATION_TYPE":"U","NORAD_CAT_ID":63308,"ELEMENT_SET_NO":999,"REV_AT_EPOCH":586,"BSTAR":-1.8205e-5,"MEAN_MOTION_DOT":-2.78e-5,"MEAN_MOTION_DDOT":0},{"OBJECT_NAME":"STARLINK-11585 [DTC]","OBJECT_ID":"2025-057C","EPOCH":"2026-03-26T12:01:55.270560","MEAN_MOTION":15.70948471,"ECCENTRICITY":8.4e-5,"INCLINATION":43.0029,"RA_OF_ASC_NODE":163.0174,"ARG_OF_PERICENTER":232.0476,"MEAN_ANOMALY":128.0316,"EPHEMERIS_TYPE":0,"CLASSIFICATION_TYPE":"U","NORAD_CAT_ID":63309,"ELEMENT_SET_NO":999,"REV_AT_EPOCH":5985,"BSTAR":0.0015766,"MEAN_MOTION_DOT":0.0020794,"MEAN_MOTION_DDOT":0},{"OBJECT_NAME":"STARLINK-11587 [DTC]","OBJECT_ID":"2025-057D","EPOCH":"2026-03-26T06:49:11.543232","MEAN_MOTION":15.70855629,"ECCENTRICITY":0.0001952,"INCLINATION":43.0003,"RA_OF_ASC_NODE":164.8495,"ARG_OF_PERICENTER":258.1808,"MEAN_ANOMALY":101.884,"EPHEMERIS_TYPE":0,"CLASSIFICATION_TYPE":"U","NORAD_CAT_ID":63310,"ELEMENT_SET_NO":999,"REV_AT_EPOCH":5978,"BSTAR":0.00015262,"MEAN_MOTION_DOT":0.00019193,"MEAN_MOTION_DDOT":0}]
