STARLINK-11608 [DTC]    
1 63275U 25053L   26085.17096785  .00215234  00000+0  16234-2 0  9996
2 63275  43.0020  12.7026 0006956 244.9564 115.0582 15.71027592 60256
STARLINK-11623 [DTC]    
1 63276U 25053M   26085.08098347  .00223700  00000+0  16937-2 0  9990
2 63276  43.0016  13.7664 0001263 230.7621 129.3135 15.70933703 60233
STARLINK-33660          
1 63278U 25053P   26085.44924396  .00022679  00000+0  83054-3 0  9991
2 63278  43.0005 147.3835 0002155 248.5497 111.5125 15.27601997 58751
STARLINK-33611          
1 63279U 25053Q   26085.22015587  .00030619  00000+0  11159-2 0  9990
2 63279  43.0029 144.7788 0001700 233.6274 126.4421 15.27630182 58874
STARLINK-33646          
1 63280U 25053R   26085.47864800  .00017433  00000+0  64119-3 0  9993
2 63280  42.9996 146.7436 0001138 266.3204  93.7517 15.27596929 58760
STARLINK-33665          
1 63281U 25053S   26085.52218873  .00015633  00000+0  57610-3 0  9991
2 63281  42.9998 146.2000 0001660 282.3160  77.7505 15.27597813 58777
STARLINK-33603          
1 63282U 25053T   26085.19155692  .00021283  00000+0  77991-3 0  9996
2 63282  42.9994 148.8690 0000853 294.5509  65.5254 15.27613263 58710
STARLINK-33669          
1 63283U 25053U   26085.52990019  .00024174  00000+0  88456-3 0  9994
2 63283  43.0033 146.2631 0001522 277.3517  82.7162 15.27600294 58771
STARLINK-33673          
1 63284U 25053V   26085.43078469  .00021052  00000+0  77169-3 0  9992
2 63284  43.0002 139.4387 0001171 268.7236  91.3481 15.27608010 58956
STARLINK-33662          
1 63285U 25053W   26084.89788424  .00016329  00000+0  60145-3 0  9998
2 63285  43.0001 150.1230 0001480 267.0906  92.9776 15.27587727 58676
STARLINK-33613          
1 63286U 25053X   26085.44281994  .00019185  00000+0  70442-3 0  9995
2 63286  43.0008 147.3338 0000846 227.7191 132.3589 15.27601855 58754
STARLINK-33680          
1 63287U 25053Y   26085.53632208  .00027613  00000+0  10083-2 0  9993
2 63287  43.0016 146.3148 0001595 284.3412  75.7262 15.27607749 58823
STARLINK-11568 [DTC]    
1 63307U 25057A   26085.49071299  .00232336  00000+0  17557-2 0  9995
2 63307  42.9992 162.9328 0001319 245.4987 114.5744 15.70952775 59828
STARLINK-11575 [DTC]    
1 63308U 25057B   26085.50002314 -.00002780  00000+0 -18205-4 0  9993
2 63308  43.0005 163.2539 0001233 268.1560 354.3252 15.70807299  5861
STARLINK-11585 [DTC]    
1 63309U 25057C   26085.50133415  .00207940  00000+0  15766-2 0  9991
2 63309  43.0029 163.0174 0000840 232.0476 128.0316 15.70948471 59853
STARLINK-11587 [DTC]    
1 63310U 25057D   26085.28416138  .00019193  00000+0  15262-3 0  9997
2 63310  43.0003 164.8495 0001952 258.1808 101.8840 15.70855629 59780
